NORAD_CAT_ID,OBJECT_NAME,OBJECT_TYPE,EPOCH,MEAN_MOTION,ECCENTRICITY,INCLINATION,RA_OF_ASC_NODE,ARG_OF_PERICENTER,MEAN_ANOMALY,BSTAR,MEAN_MOTION_DOT,MEAN_MOTION_DDOT,TLE_LINE0,TLE_LINE1,TLE_LINE2,SEMIMAJOR_AXIS,PERIOD,APOGEE,PERIGEE,DECAYED
50174.0,STARLINK-3292,PAYLOAD,2024-02-05 03:14:25,15.08835757,0.0001514,53.2175,76.8503,94.3822,265.7344,5.2923e-05,5.54e-06,0.0,0 STARLINK-3292,1 50174U 21125U   24036.13502059  .00000554  00000-0  52923-4 0  9997,2 50174  53.2175  76.8503 0001514  94.3822 265.7344 15.08835757120856,6917.893,95.438,540.806,538.711,0.0
50174.0,STARLINK-3292,PAYLOAD,2024-02-05 09:35:57,15.08840777,0.0001472,53.217,75.6628,92.1663,267.9498,0.00012468,1.697e-05,0.0,0 STARLINK-3292,1 50174U 21125U   24036.39997633  .00001697  00000-0  12468-3 0  9999,2 50174  53.2170  75.6628 0001472  92.1663 267.9498 15.08840777121413,6917.878,95.438,540.761,538.725,0.0
50174.0,STARLINK-3292,PAYLOAD,2024-02-06 09:26:45,15.08842172,0.0001602,53.2179,71.2048,100.8802,259.2371,1.2803e-05,-8.4e-07,0.0,0 STARLINK-3292,1 50174U 21125U   24037.39358064 -.00000084  00000-0  12803-4 0  9993,2 50174  53.2179  71.2048 0001602 100.8802 259.2371 15.08842172121041,6917.874,95.437,540.847,538.631,0.0
50174.0,STARLINK-3292,PAYLOAD,2024-02-07 10:52:55,15.08844431,0.0001559,53.2179,66.4457,95.527,264.59,7.7296e-05,9.43e-06,0.0,0 STARLINK-3292,1 50174U 21125U   24038.45341903  .00000943  00000-0  77296-4 0  9995,2 50174  53.2179  66.4457 0001559  95.5270 264.5900 15.08844431121206,6917.867,95.437,540.81,538.653,0.0
50174.0,STARLINK-3292,PAYLOAD,2024-02-07 18:49:51,15.08841288,0.0001564,53.2178,64.956,92.8404,267.2767,-4.9435e-05,-1.075e-05,0.0,0 STARLINK-3292,1 50174U 21125U   24038.78462321 -.00001075  00000-0 -49435-4 0  9992,2 50174  53.2178  64.9560 0001564  92.8404 267.2767 15.08841288121778,6917.876,95.437,540.823,538.659,0.0
50174.0,STARLINK-3292,PAYLOAD,2024-02-08 10:43:42,15.08844876,0.0001584,53.2182,61.9804,98.6807,261.4365,6.2993e-05,7.15e-06,0.0,0 STARLINK-3292,1 50174U 21125U   24039.44702052  .00000715  00000-0  62993-4 0  9996,2 50174  53.2182  61.9804 0001584  98.6807 261.4365 15.08844876121871,6917.865,95.437,540.826,538.635,0.0
50174.0,STARLINK-3292,PAYLOAD,2024-02-09 10:34:29,15.08843293,0.0001671,53.2181,57.5165,91.2607,268.8576,3.6415e-05,2.92e-06,0.0,0 STARLINK-3292,1 50174U 21125U   24040.44062475  .00000292  00000-0  36415-4 0  9996,2 50174  53.2181  57.5165 0001671  91.2607 268.8576 15.08843293121502,6917.87,95.437,540.891,538.579,0.0
50174.0,STARLINK-3292,PAYLOAD,2024-02-10 04:03:44,15.0883482,0.0001786,53.2173,54.2508,120.3766,239.7403,8.2564e-05,1.026e-05,0.0,0 STARLINK-3292,1 50174U 21125U   24041.16926893  .00001026  00000-0  82564-4 0  9991,2 50174  53.2173  54.2508 0001786 120.3766 239.7403 15.08834820121619,6917.896,95.438,540.997,538.526,0.0
50174.0,STARLINK-3292,PAYLOAD,2024-02-10 07:14:31,15.08843188,0.000168,53.2177,53.6578,99.78,260.3382,3.8084e-06,-2.27e-06,0.0,0 STARLINK-3292,1 50174U 21125U   24041.30174844 -.00000227  00000-0  38084-5 0  9990,2 50174  53.2177  53.6578 0001680  99.7800 260.3382 15.08843188122157,6917.871,95.437,540.898,538.573,0.0
50174.0,STARLINK-3292,PAYLOAD,2024-02-11 05:29:54,15.0884543,0.0001781,53.2181,49.4947,114.0097,246.1082,5.9171e-05,6.54e-06,0.0,0 STARLINK-3292,1 50174U 21125U   24042.22910655  .00000654  00000-0  59171-4 0  9992,2 50174  53.2181  49.4947 0001781 114.0097 246.1082 15.08845430121774,6917.864,95.437,540.961,538.497,0.0
50174.0,STARLINK-3292,PAYLOAD,2024-02-11 07:05:17,15.08849525,0.000182,53.2185,49.197,111.9444,248.1741,3.8642e-05,3.27e-06,0.0,0 STARLINK-3292,1 50174U 21125U   24042.29534481  .00000327  00000-0  38642-4 0  9995,2 50174  53.2185  49.1970 0001820 111.9444 248.1741 15.08849525122300,6917.851,95.437,540.975,538.457,0.0
50174.0,STARLINK-3292,PAYLOAD,2024-02-12 03:45:18,15.08842719,0.0001638,53.2187,45.3319,100.5806,259.5371,7.1147e-05,8.45e-06,0.0,0 STARLINK-3292,1 50174U 21125U   24043.15646828  .00000845  00000-0  71147-4 0  9992,2 50174  53.2187  45.3319 0001638 100.5806 259.5371 15.08842719121919,6917.872,95.437,540.87,538.604,0.0
50174.0,STARLINK-3292,PAYLOAD,2024-02-12 06:56:04,15.0884516,0.0001753,53.2183,44.7368,103.2857,256.8331,0.00010105,1.321e-05,0.0,0 STARLINK-3292,1 50174U 21125U   24043.28894649  .00001321  00000-0  10105-3 0  9998,2 50174  53.2183  44.7368 0001753 103.2857 256.8331 15.08845160122455,6917.865,95.437,540.942,538.517,0.0
50174.0,STARLINK-3292,PAYLOAD,2024-02-13 03:36:06,15.08839296,0.0001698,53.2181,40.8669,114.9991,245.1177,-1.8533e-05,-5.83e-06,0.0,0 STARLINK-3292,1 50174U 21125U   24044.15007264 -.00000583  00000-0 -18533-4 0  9999,2 50174  53.2181  40.8669 0001698 114.9991 245.1177 15.08839296122069,6917.883,95.438,540.922,538.573,0.0
50174.0,STARLINK-3292,PAYLOAD,2024-02-13 05:11:29,15.08840472,0.0001787,53.2188,40.5692,119.8979,240.219,-1.0391e-05,-4.53e-06,0.0,0 STARLINK-3292,1 50174U 21125U   24044.21631249 -.00000453  00000-0 -10391-4 0  9992,2 50174  53.2188  40.5692 0001787 119.8979 240.2190 15.08840472122595,6917.879,95.438,540.98,538.508,0.0
50174.0,STARLINK-3292,PAYLOAD,2024-02-13 16:19:11,15.08839703,0.0001517,53.219,38.4914,99.8069,260.3094,6.582e-05,7.6e-06,0.0,0 STARLINK-3292,1 50174U 21125U   24044.67999376  .00000760  00000-0  65820-4 0  9996,2 50174  53.2190  38.4914 0001517  99.8069 260.3094 15.08839703122668,6917.881,95.438,540.796,538.697,0.0
50174.0,STARLINK-3292,PAYLOAD,2024-02-14 05:02:16,15.08840107,0.0001519,53.219,36.1159,97.5422,262.5743,5.7228e-05,6.23e-06,0.0,0 STARLINK-3292,1 50174U 21125U   24045.20991583  .00000623  00000-0  57228-4 0  9999,2 50174  53.2190  36.1159 0001519  97.5422 262.5743 15.08840107122221,6917.88,95.438,540.796,538.694,0.0
50174.0,STARLINK-3292,PAYLOAD,2024-02-14 08:13:02,15.08847656,0.0001545,53.2183,35.5173,94.652,265.4649,0.00012301,1.671e-05,0.0,0 STARLINK-3292,1 50174U 21125U   24045.34238838  .00001671  00000-0  12301-3 0  9997,2 50174  53.2183  35.5173 0001545  94.6520 265.4649 15.08847656122243,6917.857,95.437,540.791,538.653,0.0
50174.0,STARLINK-3292,PAYLOAD,2024-02-14 16:09:58,15.08842453,0.0001487,53.2185,34.0302,91.2798,268.8364,1.281e-05,-8.4e-07,0.0,0 STARLINK-3292,1 50174U 21125U   24045.67359421 -.00000084  00000-0  12810-4 0  9999,2 50174  53.2185  34.0302 0001487  91.2798 268.8364 15.08842453122294,6917.873,95.437,540.767,538.709,0.0
50174.0,STARLINK-3292,PAYLOAD,2024-02-15 03:17:40,15.08836475,0.0001389,53.2185,31.9486,93.9634,266.1517,8.4951e-05,1.064e-05,0.0,0 STARLINK-3292,1 50174U 21125U   24046.13727907  .00001064  00000-0  84951-4 0  9992,2 50174  53.2185  31.9486 0001389  93.9634 266.1517 15.08836475122368,6917.891,95.438,540.717,538.795,0.0
50174.0,STARLINK-3292,PAYLOAD,2024-02-15 08:03:50,15.08841328,0.0001476,53.2191,31.0571,96.0594,264.0566,0.00012121,1.642e-05,0.0,0 STARLINK-3292,1 50174U 21125U   24046.33599557  .00001642  00000-0  12121-3 0  9993,2 50174  53.2191  31.0571 0001476  96.0594 264.0566 15.08841328122912,6917.876,95.437,540.762,538.72,0.0
50174.0,STARLINK-3292,PAYLOAD,2024-02-15 22:22:18,15.08835962,0.0001463,53.2189,28.3812,88.9245,271.1915,9.3197e-05,1.195e-05,0.0,0 STARLINK-3292,1 50174U 21125U   24046.93216079  .00001195  00000-0  93197-4 0  9990,2 50174  53.2189  28.3812 0001463  88.9245 271.1915 15.08835962123000,6917.893,95.438,540.77,538.746,0.0
50174.0,STARLINK-3292,PAYLOAD,2024-02-16 04:43:51,15.08837832,0.0001228,53.2173,27.1917,91.9299,268.1833,0.0001055,1.391e-05,0.0,0 STARLINK-3292,1 50174U 21125U   24047.19711879  .00001391  00000-0  10550-3 0  9996,2 50174  53.2173  27.1917 0001228  91.9299 268.1833 15.08837832122527,6917.887,95.438,540.602,538.902,0.0
50174.0,STARLINK-3292,PAYLOAD,2024-02-16 06:19:13,15.08845787,0.0001392,53.2174,26.8943,90.634,269.4812,6.3416e-05,7.22e-06,0.0,0 STARLINK-3292,1 50174U 21125U   24047.26335534  .00000722  00000-0  63416-4 0  9991,2 50174  53.2174  26.8943 0001392  90.6340 269.4812 15.08845787123056,6917.863,95.437,540.691,538.765,0.0
50174.0,STARLINK-3292,PAYLOAD,2024-02-16 22:13:05,15.08837992,0.0001465,53.2187,23.9202,100.0887,260.0271,7.2622e-05,8.68e-06,0.0,0 STARLINK-3292,1 50174U 21125U   24047.92575916  .00000868  00000-0  72622-4 0  9994,2 50174  53.2187  23.9202 0001465 100.0887 260.0271 15.08837992123155,6917.887,95.438,540.765,538.738,0.0
50174.0,STARLINK-3292,PAYLOAD,2024-02-17 04:34:38,15.08838848,0.0001426,53.2183,22.7309,98.0999,262.0155,7.1315e-05,8.47e-06,0.0,0 STARLINK-3292,1 50174U 21125U   24048.19071855  .00000847  00000-0  71315-4 0  9992,2 50174  53.2183  22.7309 0001426  98.0999 262.0155 15.08838848122673,6917.884,95.438,540.735,538.762,0.0
50174.0,STARLINK-3292,PAYLOAD,2024-02-17 15:42:19,15.08847754,0.0001452,53.2181,20.6495,96.995,263.1207,3.3924e-05,2.52e-06,0.0,0 STARLINK-3292,1 50174U 21125U   24048.65439283  .00000252  00000-0  33924-4 0  9990,2 50174  53.2181  20.6495 0001452  96.9950 263.1207 15.08847754122741,6917.857,95.437,540.726,538.717,0.0
50174.0,STARLINK-3292,PAYLOAD,2024-02-18 02:50:01,15.08841724,0.0001674,53.2193,18.5688,91.3002,268.8182,5.9278e-05,6.56e-06,0.0,0 STARLINK-3292,1 50174U 21125U   24049.11807704  .00000656  00000-0  59278-4 0  9997,2 50174  53.2193  18.5688 0001674  91.3002 268.8182 15.08841724122810,6917.875,95.437,540.898,538.582,0.0
50174.0,STARLINK-3292,PAYLOAD,2024-02-18 04:25:24,15.0884729,0.0001569,53.2196,18.2706,97.1448,262.9722,5.485e-05,5.85e-06,0.0,0 STARLINK-3292,1 50174U 21125U   24049.18431353  .00000585  00000-0  54850-4 0  9999,2 50174  53.2196  18.2706 0001569  97.1448 262.9722 15.08847290123340,6917.858,95.437,540.809,538.638,0.0
50174.0,STARLINK-3292,PAYLOAD,2024-02-18 21:54:39,15.08844243,0.0001739,53.2196,14.999,98.656,261.4629,3.9247e-05,3.37e-06,0.0,0 STARLINK-3292,1 50174U 21125U   24049.91295431  .00000337  00000-0  39247-4 0  9993,2 50174  53.2196  14.9990 0001739  98.6560 261.4629 15.08844243123455,6917.867,95.437,540.935,538.529,0.0
